{
    "timestamp": "2308 UTC 06 Dec 2017",
    "weatherString": "KGRR 062253Z 26016G22KT 10SM OVC034 01/M06 A2990"
}